NORAD_CAT_ID,OBJECT_NAME,OBJECT_TYPE,EPOCH,MEAN_MOTION,ECCENTRICITY,INCLINATION,RA_OF_ASC_NODE,ARG_OF_PERICENTER,MEAN_ANOMALY,BSTAR,MEAN_MOTION_DOT,MEAN_MOTION_DDOT,TLE_LINE0,TLE_LINE1,TLE_LINE2,SEMIMAJOR_AXIS,PERIOD,APOGEE,PERIGEE,DECAYED
52540.0,STARLINK-3940,PAYLOAD,2023-02-13 13:33:10,15.08856055,0.0001521,53.2162,117.561,85.5173,274.5993,1.1921e-05,-9.8e-07,0.0,0 STARLINK-3940,1 52540U 22051H   23044.56470801 -.00000098  00000-0  11921-4 0  9996,2 52540  53.2162 117.5610 0001521  85.5173 274.5993 15.08856055 42419,6917.831,95.437,540.749,538.644,0.0
52540.0,STARLINK-3940,PAYLOAD,2023-02-14 03:51:39,15.0883202,0.0001844,53.2161,114.8844,92.7928,267.3276,3.1287e-05,2.1e-06,0.0,0 STARLINK-3940,1 52540U 22051H   23045.16087768  .00000210  00000-0  31287-4 0  9991,2 52540  53.2161 114.8844 0001844  92.7928 267.3276 15.08832020 42503,6917.905,95.438,541.045,538.494,0.0
52540.0,STARLINK-3940,PAYLOAD,2023-02-14 13:23:58,15.08847187,0.000125,53.2171,113.0993,103.3588,256.7543,7.1891e-05,8.57e-06,0.0,0 STARLINK-3940,1 52540U 22051H   23045.55831218  .00000857  00000-0  71891-4 0  9993,2 52540  53.2171 113.0993 0001250 103.3588 256.7543 15.08847187 42499,6917.858,95.437,540.588,538.859,0.0
52540.0,STARLINK-3940,PAYLOAD,2023-02-14 14:59:21,15.08848435,0.0001187,53.2163,112.8011,102.2088,257.9038,8.1861e-05,1.015e-05,0.0,0 STARLINK-3940,1 52540U 22051H   23045.62455080  .00001015  00000-0  81861-4 0  9995,2 52540  53.2163 112.8011 0001187 102.2088 257.9038 15.08848435 42578,6917.855,95.437,540.541,538.898,0.0
52540.0,STARLINK-3940,PAYLOAD,2023-02-14 21:20:54,15.08840276,0.0001253,53.2151,111.6103,104.4188,255.6943,-8.2831e-05,-1.606e-05,0.0,0 STARLINK-3940,1 52540U 22051H   23045.88951892 -.00001606  00000-0 -82831-4 0  9991,2 52540  53.2151 111.6103 0001253 104.4188 255.6943 15.08840276 42613,6917.88,95.438,540.611,538.878,0.0
52540.0,STARLINK-3940,PAYLOAD,2023-02-15 13:14:44,15.08860359,0.0001299,53.2166,108.6383,108.7094,251.404,0.00017839,2.554e-05,0.0,0 STARLINK-3940,1 52540U 22051H   23046.55190353  .00002554  00000-0  17839-3 0  9999,2 52540  53.2166 108.6383 0001299 108.7094 251.4040 15.08860359 42715,6917.818,95.436,540.582,538.785,0.0
52540.0,STARLINK-3940,PAYLOAD,2023-02-15 16:25:30,15.088664,0.0001265,53.2152,108.0412,129.4933,230.6171,0.00035919,5.437e-05,0.0,0 STARLINK-3940,1 52540U 22051H   23046.68437997  .00005437  00000-0  35919-3 0  9993,2 52540  53.2152 108.0412 0001265 129.4933 230.6171 15.08866400 42663,6917.8,95.436,540.54,538.79,0.0
52540.0,STARLINK-3940,PAYLOAD,2023-02-16 09:54:45,15.08842925,6.96e-05,53.2152,104.7728,92.2991,267.808,0.00019516,2.82e-05,0.0,0 STARLINK-3940,1 52540U 22051H   23047.41303176  .00002820  00000-0  19516-3 0  9994,2 52540  53.2152 104.7728 0000696  92.2991 267.8080 15.08842925 42841,6917.871,95.437,540.218,539.255,0.0
52540.0,STARLINK-3940,PAYLOAD,2023-02-16 11:30:08,15.08865441,0.0001228,53.2162,104.475,92.704,267.4093,0.00034157,5.156e-05,0.0,0 STARLINK-3940,1 52540U 22051H   23047.47926131  .00005156  00000-0  34157-3 0  9995,2 52540  53.2162 104.4750 0001228  92.7040 267.4093 15.08865441 42855,6917.803,95.436,540.517,538.818,0.0
52540.0,STARLINK-3940,PAYLOAD,2023-02-17 06:34:47,15.08831286,9.81e-05,53.2159,100.9098,102.9819,257.1283,-8.0697e-05,-1.571e-05,0.0,0 STARLINK-3940,1 52540U 22051H   23048.27415921 -.00001571  00000-0 -80697-4 0  9994,2 52540  53.2159 100.9098 0000981 102.9819 257.1283 15.08831286 42970,6917.907,95.438,540.451,539.093,0.0
52540.0,STARLINK-3940,PAYLOAD,2023-02-17 12:56:19,15.08835834,0.0001126,53.2161,99.7176,113.3527,246.7584,-0.00011899,-2.181e-05,0.0,0 STARLINK-3940,1 52540U 22051H   23048.53911755 -.00002181  00000-0 -11899-3 0  9994,2 52540  53.2161  99.7176 0001126 113.3527 246.7584 15.08835834 42947,6917.893,95.438,540.537,538.979,0.0
52540.0,STARLINK-3940,PAYLOAD,2023-02-17 20:53:16,15.08824233,0.0001419,53.2161,98.2324,85.964,274.1514,-0.000308,-5.184e-05,0.0,0 STARLINK-3940,1 52540U 22051H   23048.87032697 -.00005184  00000-0 -30800-3 0  9999,2 52540  53.2161  98.2324 0001419  85.9640 274.1514 15.08824233 42995,6917.929,95.439,540.775,538.812,0.0
52540.0,STARLINK-3940,PAYLOAD,2023-02-18 12:47:07,15.08825637,0.0001002,53.2159,95.2589,84.4929,275.6177,-0.00024297,-4.151e-05,0.0,0 STARLINK-3940,1 52540U 22051H   23049.53272996 -.00004151  00000-0 -24297-3 0  9997,2 52540  53.2159  95.2589 0001002  84.4929 275.6177 15.08825637 43096,6917.924,95.438,540.482,539.096,0.0
52540.0,STARLINK-3940,PAYLOAD,2023-02-19 04:41:00,15.08825896,8.33e-05,53.2162,92.2854,83.9398,276.1689,0.00025771,3.815e-05,0.0,0 STARLINK-3940,1 52540U 22051H   23050.19514098  .00003815  00000-0  25771-3 0  9995,2 52540  53.2162  92.2854 0000833  83.9398 276.1689 15.08825896 43267,6917.923,95.438,540.365,539.212,0.0
52540.0,STARLINK-3940,PAYLOAD,2023-02-19 12:37:54,15.08851729,9.05e-05,53.2156,90.7966,109.0748,251.0342,0.00059873,9.257e-05,0.0,0 STARLINK-3940,1 52540U 22051H   23050.52633093  .00009257  00000-0  59873-3 0  9995,2 52540  53.2156  90.7966 0000905 109.0748 251.0342 15.08851729 43246,6917.845,95.437,540.336,539.083,0.0
52540.0,STARLINK-3940,PAYLOAD,2023-02-19 14:13:18,15.088584,9.21e-05,53.2154,90.4997,102.9303,257.1792,0.0008356,0.00013042,0.0,0 STARLINK-3940,1 52540U 22051H   23050.59257232  .00013042  00000-0  83560-3 0  9996,2 52540  53.2154  90.4997 0000921 102.9303 257.1792 15.08858400 43320,6917.824,95.436,540.326,539.052,0.0
52540.0,STARLINK-3940,PAYLOAD,2023-02-20 09:17:55,15.08854732,0.0001001,53.2159,86.9319,95.8567,264.2539,0.00043929,6.713e-05,0.0,0 STARLINK-3940,1 52540U 22051H   23051.38745076  .00006713  00000-0  43929-3 0  9994,2 52540  53.2159  86.9319 0001001  95.8567 264.2539 15.08854732 43440,6917.835,95.437,540.393,539.008,0.0
52540.0,STARLINK-3940,PAYLOAD,2023-02-20 12:28:41,15.08861983,0.0001003,53.2156,86.3365,95.461,264.6497,0.00051666,7.949e-05,0.0,0 STARLINK-3940,1 52540U 22051H   23051.51992668  .00007949  00000-0  51666-3 0  9999,2 52540  53.2156  86.3365 0001003  95.4610 264.6497 15.08861983 43396,6917.813,95.436,540.372,538.984,0.0
52540.0,STARLINK-3940,PAYLOAD,2023-02-21 05:57:55,15.08850041,0.0001156,53.2156,83.065,97.2121,262.9003,0.00011313,1.514e-05,0.0,0 STARLINK-3940,1 52540U 22051H   23052.24856443  .00001514  00000-0  11313-3 0  9997,2 52540  53.2156  83.0650 0001156  97.2121 262.9003 15.08850041 43570,6917.85,95.437,540.514,538.915,0.0
52540.0,STARLINK-3940,PAYLOAD,2023-02-21 12:19:28,15.08857167,0.0001202,53.2155,81.8757,89.5158,270.5971,0.00071901,0.00011179,0.0,0 STARLINK-3940,1 52540U 22051H   23052.51352315  .00011179  00000-0  71901-3 0  9993,2 52540  53.2155  81.8757 0001202  89.5158 270.5971 15.08857167 43541,6917.828,95.436,540.524,538.861,0.0
52540.0,STARLINK-3940,PAYLOAD,2023-02-21 18:41:01,15.08845254,0.0001121,53.2154,80.6854,93.4525,266.6595,0.00027723,4.128e-05,0.0,0 STARLINK-3940,1 52540U 22051H   23052.77848419  .00004128  00000-0  27723-3 0  9995,2 52540  53.2154  80.6854 0001121  93.4525 266.6595 15.08845254 43583,6917.864,95.437,540.505,538.954,0.0
52540.0,STARLINK-3940,PAYLOAD,2023-02-22 01:02:33,15.08845671,0.0001272,53.2162,79.4973,93.7928,266.321,0.00027527,4.096e-05,0.0,0 STARLINK-3940,1 52540U 22051H   23053.04344400  .00004096  00000-0  27527-3 0  9993,2 52540  53.2162  79.4973 0001272  93.7928 266.3210 15.08845671 43693,6917.863,95.437,540.608,538.848,0.0
52540.0,STARLINK-3940,PAYLOAD,2023-02-22 10:34:52,15.08854693,0.0001247,53.2151,77.7117,91.207,268.9065,0.00066567,0.00010326,0.0,0 STARLINK-3940,1 52540U 22051H   23053.44088224  .00010326  00000-0  66567-3 0  9996,2 52540  53.2151  77.7117 0001247  91.2070 268.9065 15.08854693 43684,6917.835,95.437,540.563,538.838,0.0
52540.0,STARLINK-3940,PAYLOAD,2023-02-22 18:31:48,15.08834065,0.0001182,53.2151,76.2247,91.4297,268.6831,-0.00011899,-2.181e-05,0.0,0 STARLINK-3940,1 52540U 22051H   23053.77208544 -.00002181  00000-0 -11899-3 0  9991,2 52540  53.2151  76.2247 0001182  91.4297 268.6831 15.08834065 43806,6917.899,95.438,540.581,538.946,0.0
52540.0,STARLINK-3940,PAYLOAD,2023-02-23 07:14:53,15.08847105,0.0001239,53.2154,73.8456,92.448,267.6654,0.00069983,0.0001087,0.0,0 STARLINK-3940,1 52540U 22051H   23054.30200668  .00010870  00000-0  69983-3 0  9999,2 52540  53.2154  73.8456 0001239  92.4480 267.6654 15.08847105 43814,6917.859,95.437,540.581,538.867,0.0
52540.0,STARLINK-3940,PAYLOAD,2023-02-23 13:36:25,15.08851449,0.0001441,53.2151,72.6562,87.8406,272.2751,0.0014227,0.00022434,0.0,0 STARLINK-3940,1 52540U 22051H   23054.56696734  .00022434  00000-0  14227-2 0  9999,2 52540  53.2151  72.6562 0001441  87.8406 272.2751 15.08851449 43925,6917.845,95.437,540.707,538.714,0.0
52540.0,STARLINK-3940,PAYLOAD,2023-02-23 19:57:58,15.0884224,0.0001428,53.2142,71.4655,98.8355,261.2799,0.00057875,8.935e-05,0.0,0 STARLINK-3940,1 52540U 22051H   23054.83192830  .00008935  00000-0  57875-3 0  9994,2 52540  53.2142  71.4655 0001428  98.8355 261.2799 15.08842240 43890,6917.874,95.437,540.726,538.751,0.0
52540.0,STARLINK-3940,PAYLOAD,2023-02-24 00:44:08,15.08844386,0.0001387,53.215,70.5748,92.5854,267.5297,0.00064385,9.975e-05,0.0,0 STARLINK-3940,1 52540U 22051H   23055.03064898  .00009975  00000-0  64385-3 0  9998,2 52540  53.2150  70.5748 0001387  92.5854 267.5297 15.08844386 43997,6917.867,95.437,540.691,538.772,0.0
52540.0,STARLINK-3940,PAYLOAD,2023-02-24 05:30:17,15.08852596,0.0001311,53.2153,69.6819,101.014,259.1,0.00081205,0.00012664,0.0,0 STARLINK-3940,1 52540U 22051H   23055.22936689  .00012664  00000-0  81205-3 0  9994,2 52540  53.2153  69.6819 0001311 101.0140 259.1000 15.08852596 43956,6917.842,95.437,540.614,538.8,0.0
52540.0,STARLINK-3940,PAYLOAD,2023-02-24 18:13:22,15.08849907,0.0001208,53.2146,67.3045,70.0251,290.0871,0.00056077,8.65e-05,0.0,0 STARLINK-3940,1 52540U 22051H   23055.75928706  .00008650  00000-0  56077-3 0  9992,2 52540  53.2146  67.3045 0001208  70.0251 290.0871 15.08849907 44039,6917.85,95.437,540.551,538.879,0.0
